{"type": "FeatureCollection", "features": [{"type": "Feature", "properties": {"norad_id": 26766, "name": "INTELSAT 10 (IS-10)", "group": "intelsat", "lat": 0.023842796395609055, "lon": -119.17540557648708, "alt_km": 36103.795628633954, "timestamp": "2025-12-24T03:53:29.309762+00:00", "meta": {"OBJECT_NAME": "INTELSAT 10 (IS-10)", "OBJECT_ID": "2001-019A", "EPOCH": "2025-12-23T20:29:28.496256", "MEAN_MOTION": 0.9907274, "ECCENTRICITY": 0.0007879, "INCLINATION": 8.6541, "RA_OF_ASC_NODE": 61.0445, "ARG_OF_PERICENTER": 229.3993, "MEAN_ANOMALY": 200.4709, "EPHEMERIS_TYPE": 0, "CLASSIFICATION_TYPE": "U", "NORAD_CAT_ID": 26766, "ELEMENT_SET_NO": 999, "REV_AT_EPOCH": 4384, "BSTAR": 0, "MEAN_MOTION_DOT": -1.1e-07, "MEAN_MOTION_DDOT": 0}, "tle": {"line1": "1 26766U 01019A   25357.85380204 -.00000011  00000+0  00000+0 0  9991", "line2": "2 26766   8.6541  61.0445 0007879 229.3993 200.4709  0.99072740 43840"}}, "geometry": {"type": "Point", "coordinates": [-119.17540557648708, 0.023842796395609055]}}, {"type": "Feature", "properties": {"norad_id": 26900, "name": "INTELSAT 902 (IS-902)", "group": "intelsat", "lat": 2.609902310448947, "lon": 100.99591849058801, "alt_km": 35805.144812654595, "timestamp": "2025-12-24T03:53:29.309786+00:00", "meta": {"OBJECT_NAME": "INTELSAT 902 (IS-902)", "OBJECT_ID": "2001-039A", "EPOCH": "2025-12-15T13:09:02.081664", "MEAN_MOTION": 1.0027087, "ECCENTRICITY": 0.00045028, "INCLINATION": 5.6536, "RA_OF_ASC_NODE": 74.0372, "ARG_OF_PERICENTER": 189.6359, "MEAN_ANOMALY": 327.9329, "EPHEMERIS_TYPE": 0, "CLASSIFICATION_TYPE": "U", "NORAD_CAT_ID": 26900, "ELEMENT_SET_NO": 999, "REV_AT_EPOCH": 8885, "BSTAR": 0, "MEAN_MOTION_DOT": -2.65e-06, "MEAN_MOTION_DDOT": 0}, "tle": {"line1": "1 26900U 01039A   25349.54794076 -.00000265  00000+0  00000+0 0  9997", "line2": "2 26900   5.6536  74.0372 0004502 189.6359 327.9329  1.00270870 88858"}}, "geometry": {"type": "Point", "coordinates": [100.99591849058801, 2.609902310448947]}}, {"type": "Feature", "properties": {"norad_id": 27380, "name": "INTELSAT 904 (IS-904)", "group": "intelsat", "lat": 4.872805621270868, "lon": 119.64350626235458, "alt_km": 35792.60557919768, "timestamp": "2025-12-24T03:53:29.309803+00:00", "meta": {"OBJECT_NAME": "INTELSAT 904 (IS-904)", "OBJECT_ID": "2002-007A", "EPOCH": "2025-12-23T11:16:19.538976", "MEAN_MOTION": 1.00273546, "ECCENTRICITY": 0.0001864, "INCLINATION": 6.4798, "RA_OF_ASC_NODE": 71.3095, "ARG_OF_PERICENTER": 244.0709, "MEAN_ANOMALY": 274.4665, "EPHEMERIS_TYPE": 0, "CLASSIFICATION_TYPE": "U", "NORAD_CAT_ID": 27380, "ELEMENT_SET_NO": 999, "REV_AT_EPOCH": 5000, "BSTAR": 0, "MEAN_MOTION_DOT": -2.07e-06, "MEAN_MOTION_DDOT": 0}, "tle": {"line1": "1 27380U 02007A   25357.46967059 -.00000207  00000+0  00000+0 0  9995", "line2": "2 27380   6.4798  71.3095 0001864 244.0709 274.4665  1.00273546 50003"}}, "geometry": {"type": "Point", "coordinates": [119.64350626235458, 4.872805621270868]}}, {"type": "Feature", "properties": {"norad_id": 27426, "name": "DIRECTV 5 (TEMPO 1)", "group": "intelsat", "lat": -2.6128554250192595, "lon": 41.30507588453399, "alt_km": 35793.6633909327, "timestamp": "2025-12-24T03:53:29.309815+00:00", "meta": {"OBJECT_NAME": "DIRECTV 5 (TEMPO 1)", "OBJECT_ID": "2002-023A", "EPOCH": "2025-12-23T16:01:57.619200", "MEAN_MOTION": 1.00271663, "ECCENTRICITY": 0.0003261, "INCLINATION": 4.4282, "RA_OF_ASC_NODE": 77.5248, "ARG_OF_PERICENTER": 202.2662, "MEAN_ANOMALY": 303.0349, "EPHEMERIS_TYPE": 0, "CLASSIFICATION_TYPE": "U", "NORAD_CAT_ID": 27426, "ELEMENT_SET_NO": 999, "REV_AT_EPOCH": 8636, "BSTAR": 0, "MEAN_MOTION_DOT": -3.8e-07, "MEAN_MOTION_DDOT": 0}, "tle": {"line1": "1 27426U 02023A   25357.66802800 -.00000038  00000+0  00000+0 0  9990", "line2": "2 27426   4.4282  77.5248 0003261 202.2662 303.0349  1.00271663 86369"}}, "geometry": {"type": "Point", "coordinates": [41.30507588453399, -2.6128554250192595]}}, {"type": "Feature", "properties": {"norad_id": 27438, "name": "INTELSAT 905 (IS-905)", "group": "intelsat", "lat": -5.341511843178593, "lon": 14.308176061279354, "alt_km": 35787.43878430831, "timestamp": "2025-12-24T03:53:29.309828+00:00", "meta": {"OBJECT_NAME": "INTELSAT 905 (IS-905)", "OBJECT_ID": "2002-027A", "EPOCH": "2025-12-23T05:41:27.377952", "MEAN_MOTION": 1.00273243, "ECCENTRICITY": 0.00027491, "INCLINATION": 6.3102, "RA_OF_ASC_NODE": 71.9349, "ARG_OF_PERICENTER": 206.5226, "MEAN_ANOMALY": 121.7385, "EPHEMERIS_TYPE": 0, "CLASSIFICATION_TYPE": "U", "NORAD_CAT_ID": 27438, "ELEMENT_SET_NO": 999, "REV_AT_EPOCH": 4959, "BSTAR": 0, "MEAN_MOTION_DOT": 1.12e-06, "MEAN_MOTION_DDOT": 0}, "tle": {"line1": "1 27438U 02027A   25357.23712243  .00000112  00000+0  00000+0 0  9993", "line2": "2 27438   6.3102  71.9349 0002749 206.5226 121.7385  1.00273243 49592"}}, "geometry": {"type": "Point", "coordinates": [14.308176061279354, -5.341511843178593]}}, {"type": "Feature", "properties": {"norad_id": 27445, "name": "GALAXY 3C (G-3C)", "group": "intelsat", "lat": -1.321083672145971, "lon": 56.475882248087146, "alt_km": 35787.71178258045, "timestamp": "2025-12-24T03:53:29.309845+00:00", "meta": {"OBJECT_NAME": "GALAXY 3C (G-3C)", "OBJECT_ID": "2002-030A", "EPOCH": "2025-12-23T17:49:02.260992", "MEAN_MOTION": 1.00271494, "ECCENTRICITY": 0.0001101, "INCLINATION": 3.2896, "RA_OF_ASC_NODE": 80.389, "ARG_OF_PERICENTER": 83.2613, "MEAN_ANOMALY": 101.281, "EPHEMERIS_TYPE": 0, "CLASSIFICATION_TYPE": "U", "NORAD_CAT_ID": 27445, "ELEMENT_SET_NO": 999, "REV_AT_EPOCH": 4473, "BSTAR": 0, "MEAN_MOTION_DOT": -1.33e-06, "MEAN_MOTION_DDOT": 0}, "tle": {"line1": "1 27445U 02030A   25357.74238728 -.00000133  00000+0  00000+0 0  9996", "line2": "2 27445   3.2896  80.3890 0001101  83.2613 101.2810  1.00271494 44735"}}, "geometry": {"type": "Point", "coordinates": [56.475882248087146, -1.321083672145971]}}, {"type": "Feature", "properties": {"norad_id": 27513, "name": "INTELSAT 906 (IS-906)", "group": "intelsat", "lat": 3.415559677760849, "lon": -144.47948637836646, "alt_km": 35772.53330704565, "timestamp": "2025-12-24T03:53:29.309872+00:00", "meta": {"OBJECT_NAME": "INTELSAT 906 (IS-906)", "OBJECT_ID": "2002-041A", "EPOCH": "2025-12-23T18:34:28.015104", "MEAN_MOTION": 1.00273398, "ECCENTRICITY": 0.000629, "INCLINATION": 5.3577, "RA_OF_ASC_NODE": 75.1001, "ARG_OF_PERICENTER": 202.0184, "MEAN_ANOMALY": 158.2022, "EPHEMERIS_TYPE": 0, "CLASSIFICATION_TYPE": "U", "NORAD_CAT_ID": 27513, "ELEMENT_SET_NO": 999, "REV_AT_EPOCH": 8527, "BSTAR": 0, "MEAN_MOTION_DOT": 3.1e-07, "MEAN_MOTION_DDOT": 0}, "tle": {"line1": "1 27513U 02041A   25357.77393536  .00000031  00000+0  00000+0 0  9992", "line2": "2 27513   5.3577  75.1001 0006290 202.0184 158.2022  1.00273398 85270"}}, "geometry": {"type": "Point", "coordinates": [-144.47948637836646, 3.415559677760849]}}, {"type": "Feature", "properties": {"norad_id": 27954, "name": "GALAXY 13 (HORIZONS-1)", "group": "intelsat", "lat": -0.9669914142014925, "lon": 1.304805188166366, "alt_km": 35786.651496068414, "timestamp": "2025-12-24T03:53:29.309892+00:00", "meta": {"OBJECT_NAME": "GALAXY 13 (HORIZONS-1)", "OBJECT_ID": "2003-044A", "EPOCH": "2025-12-23T17:33:18.869760", "MEAN_MOTION": 1.0027125, "ECCENTRICITY": 0.0002341, "INCLINATION": 0.9652, "RA_OF_ASC_NODE": 86.3258, "ARG_OF_PERICENTER": 182.915, "MEAN_ANOMALY": 296.5742, "EPHEMERIS_TYPE": 0, "CLASSIFICATION_TYPE": "U", "NORAD_CAT_ID": 27954, "ELEMENT_SET_NO": 999, "REV_AT_EPOCH": 4481, "BSTAR": 0, "MEAN_MOTION_DOT": 1.53e-06, "MEAN_MOTION_DDOT": 0}, "tle": {"line1": "1 27954U 03044A   25357.73146840  .00000153  00000+0  00000+0 0  9990", "line2": "2 27954   0.9652  86.3258 0002341 182.9150 296.5742  1.00271250 44819"}}, "geometry": {"type": "Point", "coordinates": [1.304805188166366, -0.9669914142014925]}}, {"type": "Feature", "properties": {"norad_id": 28358, "name": "INTELSAT 10-02", "group": "intelsat", "lat": 0.028399760034942507, "lon": 150.34911464989494, "alt_km": 35789.8326447483, "timestamp": "2025-12-24T03:53:29.309905+00:00", "meta": {"OBJECT_NAME": "INTELSAT 10-02", "OBJECT_ID": "2004-022A", "EPOCH": "2025-12-23T02:51:22.948704", "MEAN_MOTION": 1.00272591, "ECCENTRICITY": 0.00010506, "INCLINATION": 0.0144, "RA_OF_ASC_NODE": 66.1532, "ARG_OF_PERICENTER": 239.4749, "MEAN_ANOMALY": 188.1743, "EPHEMERIS_TYPE": 0, "CLASSIFICATION_TYPE": "U", "NORAD_CAT_ID": 28358, "ELEMENT_SET_NO": 999, "REV_AT_EPOCH": 7879, "BSTAR": 0, "MEAN_MOTION_DOT": 1.1e-07, "MEAN_MOTION_DDOT": 0}, "tle": {"line1": "1 28358U 04022A   25357.11901561  .00000011  00000+0  00000+0 0  9990", "line2": "2 28358   0.0144  66.1532 0001050 239.4749 188.1743  1.00272591 78794"}}, "geometry": {"type": "Point", "coordinates": [150.34911464989494, 0.028399760034942507]}}, {"type": "Feature", "properties": {"norad_id": 28626, "name": "XM-3 (RHYTHM)", "group": "intelsat", "lat": 0.14865115521118125, "lon": -148.71192869307475, "alt_km": 36168.13279246418, "timestamp": "2025-12-24T03:53:29.309917+00:00", "meta": {"OBJECT_NAME": "XM-3 (RHYTHM)", "OBJECT_ID": "2005-008A", "EPOCH": "2025-12-23T19:28:19.807104", "MEAN_MOTION": 0.9894996, "ECCENTRICITY": 0.0002107, "INCLINATION": 0.2015, "RA_OF_ASC_NODE": 82.1428, "ARG_OF_PERICENTER": 275.4004, "MEAN_ANOMALY": 88.7984, "EPHEMERIS_TYPE": 0, "CLASSIFICATION_TYPE": "U", "NORAD_CAT_ID": 28626, "ELEMENT_SET_NO": 999, "REV_AT_EPOCH": 4086, "BSTAR": 0, "MEAN_MOTION_DOT": 9.9e-07, "MEAN_MOTION_DDOT": 0}, "tle": {"line1": "1 28626U 05008A   25357.81134036  .00000099  00000+0  00000+0 0  9991", "line2": "2 28626   0.2015  82.1428 0002107 275.4004  88.7984  0.98949960 40867"}}, "geometry": {"type": "Point", "coordinates": [-148.71192869307475, 0.14865115521118125]}}]}